[ {"spaceTrack": {"CCSDS_OMM_VERS": "2.0", "COMMENT": "GENERATED VIA SPACE-TRACK.ORG API", "CREATION_DATE": "2020-08-23 22:46:10", "ORIGINATOR": "18 SPCS", "OBJECT_NAME": "STARLINK-1573", "OBJECT_ID": "2020-055AL", "CENTER_NAME": "EARTH", "REF_FRAME": "TEME", "TIME_SYSTEM": "UTC", "MEAN_ELEMENT_THEORY": "SGP4", "EPOCH": "2020-08-23 22:00:00.999936", "MEAN_MOTION": 15.62732379, "ECCENTRICITY": 0.0001338, "INCLINATION": 52.9992, "RA_OF_ASC_NODE": 209.8427, "ARG_OF_PERICENTER": 336.6409, "MEAN_ANOMALY": 299.8915, "EPHEMERIS_TYPE": 0, "CLASSIFICATION_TYPE": "U", "NORAD_CAT_ID": 46061, "ELEMENT_SET_NO": 999, "REV_AT_EPOCH": 335, "BSTAR": 0.0004278, "MEAN_MOTION_DOT": 0.00038792, "MEAN_MOTION_DDOT": 0, "SEMIMAJOR_AXIS": 6757.905, "PERIOD": 92.146, "APOAPSIS": 380.674, "PERIAPSIS": 378.866, "OBJECT_TYPE": "PAYLOAD", "RCS_SIZE": "LARGE", "COUNTRY_CODE": "US", "LAUNCH_DATE": "2020-08-07", "SITE": "AFETR", "DECAY_DATE": null, "DECAYED": 0, "FILE": 2807291, "GP_ID": 159986795, "TLE_LINE0": "0 STARLINK-1573", "TLE_LINE1": "1 46061U 20055AL  20236.91667824  .00038792  00000-0  42780-3 0  9998", "TLE_LINE2": "2 46061  52.9992 209.8427 0001338 336.6409 299.8915 15.62732379  3352"}, "version": "v1.0", "launch": "5ed9819a1f30554030d45c29", "longitude": -177.55938551150595, "latitude": -49.28504758418641, "height_km": 396.06720643044264, "velocity_kms": 7.672766241553404, "id": "5f36cb59bd888300062740b1"}, {"spaceTrack": {"CCSDS_OMM_VERS": "2.0", "COMMENT": "GENERATED VIA SPACE-TRACK.ORG API", "CREATION_DATE": "2020-08-23 14:56:10", "ORIGINATOR": "18 SPCS", "OBJECT_NAME": "STARLINK-1571", "OBJECT_ID": "2020-055BG", "CENTER_NAME": "EARTH", "REF_FRAME": "TEME", "TIME_SYSTEM": "UTC", "MEAN_ELEMENT_THEORY": "SGP4", "EPOCH": "2020-08-23 14:00:01.999872", "MEAN_MOTION": 15.62753059, "ECCENTRICITY": 0.0008136, "INCLINATION": 52.9989, "RA_OF_ASC_NODE": 211.4158, "ARG_OF_PERICENTER": 296.0409, "MEAN_ANOMALY": 293.463, "EPHEMERIS_TYPE": 0, "CLASSIFICATION_TYPE": "U", "NORAD_CAT_ID": 46081, "ELEMENT_SET_NO": 999, "REV_AT_EPOCH": 330, "BSTAR": -0.00031408, "MEAN_MOTION_DOT": -0.00029248, "MEAN_MOTION_DDOT": 0, "SEMIMAJOR_AXIS": 6757.845, "PERIOD": 92.145, "APOAPSIS": 385.208, "PERIAPSIS": 374.212, "OBJECT_TYPE": "PAYLOAD", "RCS_SIZE": "LARGE", "COUNTRY_CODE": "US", "LAUNCH_DATE": "2020-08-07", "SITE": "AFETR", "DECAY_DATE": null, "DECAYED": 0, "FILE": 2807087, "GP_ID": 159940873, "TLE_LINE0": "0 STARLINK-1571", "TLE_LINE1": "1 46081U 20055BG  20236.58335648 -.00029248  00000-0 -31408-3 0  9992", "TLE_LINE2": "2 46081  52.9989 211.4158 0008136 296.0409 293.4630 15.62753059  3309"}, "version": "v1.0", "launch": "5ed9819a1f30554030d45c29", "longitude": -145.5010156155001, "latitude": -32.42946360891877, "height_km": 384.6923300386634, "velocity_kms": 7.681921868220087, "id": "5f36cb59bd888300062740b6"}, {"spaceTrack": {"CCSDS_OMM_VERS": "2.0", "COMMENT": "GENERATED VIA SPACE-TRACK.ORG API", "CREATION_DATE": "2020-08-23 17:26:13", "ORIGINATOR": "18 SPCS", "OBJECT_NAME": "STARLINK-1539", "OBJECT_ID": "2020-055AX", "CENTER_NAME": "EARTH", "REF_FRAME": "TEME", "TIME_SYSTEM": "UTC", "MEAN_ELEMENT_THEORY": "SGP4", "EPOCH": "2020-08-23 14:00:01.999872", "MEAN_MOTION": 15.62801758, "ECCENTRICITY": 0.0008439, "INCLINATION": 52.9986, "RA_OF_ASC_NODE": 211.4365, "ARG_OF_PERICENTER": 295.7899, "MEAN_ANOMALY": 283.4555, "EPHEMERIS_TYPE": 0, "CLASSIFICATION_TYPE": "U", "NORAD_CAT_ID": 46072, "ELEMENT_SET_NO": 999, "REV_AT_EPOCH": 177, "BSTAR": -0.00029682, "MEAN_MOTION_DOT": -0.00027732, "MEAN_MOTION_DDOT": 0, "SEMIMAJOR_AXIS": 6757.705, "PERIOD": 92.142, "APOAPSIS": 385.273, "PERIAPSIS": 373.867, "OBJECT_TYPE": "PAYLOAD", "RCS_SIZE": "LARGE", "COUNTRY_CODE": "US", "LAUNCH_DATE": "2020-08-07", "SITE": "AFETR", "DECAY_DATE": null, "DECAYED": 0, "FILE": 2807181, "GP_ID": 159963675, "TLE_LINE0": "0 STARLINK-1539", "TLE_LINE1": "1 46072U 20055AX  20236.58335648 -.00027732 +00000-0 -29682-3 0  9999", "TLE_LINE2": "2 46072 052.9986 211.4365 0008439 295.7899 283.4555 15.62801758001775"}, "version": "v1.0", "launch": "5ed9819a1f30554030d45c29", "longitude": -154.73020843187646, "latitude": -39.20005949586336, "height_km": 386.82917035668925, "velocity_kms": 7.680885280994622, "id": "5f36cb59bd888300062740b5"}, {"spaceTrack": {"CCSDS_OMM_VERS": "2.0", "COMMENT": "GENERATED VIA SPACE-TRACK.ORG API", "CREATION_DATE": "2020-08-23 14:56:10", "ORIGINATOR": "18 SPCS", "OBJECT_NAME": "STARLINK-1584", "OBJECT_ID": "2020-055T", "CENTER_NAME": "EARTH", "REF_FRAME": "TEME", "TIME_SYSTEM": "UTC", "MEAN_ELEMENT_THEORY": "SGP4", "EPOCH": "2020-08-23 14:00:01.999872", "MEAN_MOTION": 15.25609703, "ECCENTRICITY": 0.0001202, "INCLINATION": 53.0056, "RA_OF_ASC_NODE": 213.4929, "ARG_OF_PERICENTER": 71.3381, "MEAN_ANOMALY": 264.6653, "EPHEMERIS_TYPE": 0, "CLASSIFICATION_TYPE": "U", "NORAD_CAT_ID": 46044, "ELEMENT_SET_NO": 999, "REV_AT_EPOCH": 330, "BSTAR": -0.049018, "MEAN_MOTION_DOT": -0.0116386, "MEAN_MOTION_DDOT": 0, "SEMIMAJOR_AXIS": 6867.092, "PERIOD": 94.388, "APOAPSIS": 489.782, "PERIAPSIS": 488.131, "OBJECT_TYPE": "PAYLOAD", "RCS_SIZE": "LARGE", "COUNTRY_CODE": "US", "LAUNCH_DATE": "2020-08-07", "SITE": "AFETR", "DECAY_DATE": null, "DECAYED": 0, "FILE": 2807090, "GP_ID": 159940892, "TLE_LINE0": "0 STARLINK-1584", "TLE_LINE1": "1 46044U 20055T   20236.58335648 -.01163860  00000-0 -49018-1 0  9995", "TLE_LINE2": "2 46044  53.0056 213.4929 0001202  71.3381 264.6653 15.25609703  3303"}, "version": "v1.0", "launch": "5ed9819a1f30554030d45c29", "longitude": -108.63052867087777, "latitude": 8.274889796893447, "height_km": 491.71407386268584, "velocity_kms": 7.621149619230582, "id": "5f36cb59bd888300062740b7"}, {"spaceTrack": {"CCSDS_OMM_VERS": "2.0", "COMMENT": "GENERATED VIA SPACE-TRACK.ORG API", "CREATION_DATE": "2020-08-23 14:46:10", "ORIGINATOR": "18 SPCS", "OBJECT_NAME": "STARLINK-1538", "OBJECT_ID": "2020-055AW", "CENTER_NAME": "EARTH", "REF_FRAME": "TEME", "TIME_SYSTEM": "UTC", "MEAN_ELEMENT_THEORY": "SGP4", "EPOCH": "2020-08-23 14:00:01.999872", "MEAN_MOTION": 15.62754728, "ECCENTRICITY": 0.0002933, "INCLINATION": 52.9989, "RA_OF_ASC_NODE": 211.4014, "ARG_OF_PERICENTER": 325.3668, "MEAN_ANOMALY": 271.7124, "EPHEMERIS_TYPE": 0, "CLASSIFICATION_TYPE": "U", "NORAD_CAT_ID": 46071, "ELEMENT_SET_NO": 999, "REV_AT_EPOCH": 330, "BSTAR": -0.00038768, "MEAN_MOTION_DOT": -0.00035887, "MEAN_MOTION_DDOT": 0, "SEMIMAJOR_AXIS": 6757.84, "PERIOD": 92.144, "APOAPSIS": 381.687, "PERIAPSIS": 377.723, "OBJECT_TYPE": "PAYLOAD", "RCS_SIZE": "LARGE", "COUNTRY_CODE": "US", "LAUNCH_DATE": "2020-08-07", "SITE": "AFETR", "DECAY_DATE": null, "DECAYED": 0, "FILE": 2807077, "GP_ID": 159940366, "TLE_LINE0": "0 STARLINK-1538", "TLE_LINE1": "1 46071U 20055AW  20236.58335648 -.00035887  00000-0 -38768-3 0  9993", "TLE_LINE2": "2 46071  52.9989 211.4014 0002933 325.3668 271.7124 15.62754728  3302"}, "version": "v1.0", "launch": "5ed9819a1f30554030d45c29", "longitude": -139.45039122056977, "latitude": -26.915621259442673, "height_km": 385.74803095496463, "velocity_kms": 7.679639494540065, "id": "5f36cb59bd888300062740b9"}, {"spaceTrack": {"CCSDS_OMM_VERS": "2.0", "COMMENT": "GENERATED VIA SPACE-TRACK.ORG API", "CREATION_DATE": "2020-08-23 14:56:10", "ORIGINATOR": "18 SPCS", "OBJECT_NAME": "STARLINK-1549", "OBJECT_ID": "2020-055AZ", "CENTER_NAME": "EARTH", "REF_FRAME": "TEME", "TIME_SYSTEM": "UTC", "MEAN_ELEMENT_THEORY": "SGP4", "EPOCH": "2020-08-23 14:00:01.999872", "MEAN_MOTION": 15.628124, "ECCENTRICITY": 0.0008285, "INCLINATION": 52.9988, "RA_OF_ASC_NODE": 211.4419, "ARG_OF_PERICENTER": 296.6253, "MEAN_ANOMALY": 280.0676, "EPHEMERIS_TYPE": 0, "CLASSIFICATION_TYPE": "U", "NORAD_CAT_ID": 46074, "ELEMENT_SET_NO": 999, "REV_AT_EPOCH": 330, "BSTAR": -0.00049211, "MEAN_MOTION_DOT": -0.00045539, "MEAN_MOTION_DDOT": 0, "SEMIMAJOR_AXIS": 6757.674, "PERIOD": 92.141, "APOAPSIS": 385.138, "PERIAPSIS": 373.94, "OBJECT_TYPE": "PAYLOAD", "RCS_SIZE": "LARGE", "COUNTRY_CODE": "US", "LAUNCH_DATE": "2020-08-07", "SITE": "AFETR", "DECAY_DATE": null, "DECAYED": 0, "FILE": 2807081, "GP_ID": 159941256, "TLE_LINE0": "0 STARLINK-1549", "TLE_LINE1": "1 46074U 20055AZ  20236.58335648 -.00045539  00000-0 -49211-3 0  9996", "TLE_LINE2": "2 46074  52.9988 211.4419 0008285 296.6253 280.0676 15.62812400  3306"}, "version": "v1.0", "launch": "5ed9819a1f30554030d45c29", "longitude": -157.32448149263317, "latitude": -40.7827311357465, "height_km": 387.53709175012136, "velocity_kms": 7.680445194461801, "id": "5f36cb59bd888300062740b8"}, {"spaceTrack": {"CCSDS_OMM_VERS": "2.0", "COMMENT": "GENERATED VIA SPACE-TRACK.ORG API", "CREATION_DATE": "2020-08-23 14:56:10", "ORIGINATOR": "18 SPCS", "OBJECT_NAME": "STARLINK-1578", "OBJECT_ID": "2020-055BH", "CENTER_NAME": "EARTH", "REF_FRAME": "TEME", "TIME_SYSTEM": "UTC", "MEAN_ELEMENT_THEORY": "SGP4", "EPOCH": "2020-08-23 14:00:01.999872", "MEAN_MOTION": 15.6275093, "ECCENTRICITY": 0.0004255, "INCLINATION": 52.9994, "RA_OF_ASC_NODE": 211.4666, "ARG_OF_PERICENTER": 303.967, "MEAN_ANOMALY": 260.104, "EPHEMERIS_TYPE": 0, "CLASSIFICATION_TYPE": "U", "NORAD_CAT_ID": 46082, "ELEMENT_SET_NO": 999, "REV_AT_EPOCH": 330, "BSTAR": -0.00031575, "MEAN_MOTION_DOT": -0.00029356, "MEAN_MOTION_DDOT": 0, "SEMIMAJOR_AXIS": 6757.851, "PERIOD": 92.145, "APOAPSIS": 382.592, "PERIAPSIS": 376.841, "OBJECT_TYPE": "PAYLOAD", "RCS_SIZE": "MEDIUM", "COUNTRY_CODE": "US", "LAUNCH_DATE": "2020-08-07", "SITE": "AFETR", "DECAY_DATE": null, "DECAYED": 0, "FILE": 2807089, "GP_ID": 159940879, "TLE_LINE0": "0 STARLINK-1578", "TLE_LINE1": "1 46082U 20055BH  20236.58335648 -.00029356  00000-0 -31575-3 0  9998", "TLE_LINE2": "2 46082  52.9994 211.4666 0004255 303.9670 260.1040 15.62750930  3307"}, "version": "v1.0", "launch": "5ed9819a1f30554030d45c29", "longitude": -172.310519775272, "latitude": -47.647868950713494, "height_km": 393.2338712924111, "velocity_kms": 7.675626466184434, "id": "5f36cb59bd888300062740c1"}]